[{"OBJECT_NAME":"YAOGAN-21","OBJECT_ID":"2014-053A","EPOCH":"2026-03-09T23:50:42.268992","MEAN_MOTION":15.2493211,"ECCENTRICITY":0.00100966,"INCLINATION":97.1617,"RA_OF_ASC_NODE":113.5215,"ARG_OF_PERICENTER":86.0219,"MEAN_ANOMALY":274.2173,"EPHEMERIS_TYPE":0,"CLASSIFICATION_TYPE":"U","NORAD_CAT_ID":40143,"ELEMENT_SET_NO":999,"REV_AT_EPOCH":63983,"BSTAR":0.00033036554,"MEAN_MOTION_DOT":8.172e-5,"MEAN_MOTION_DDOT":0},{"OBJECT_NAME":"STARLINK-35820","OBJECT_ID":"2025-270K","EPOCH":"2026-03-09T22:38:50.901216","MEAN_MOTION":15.27584678,"ECCENTRICITY":0.0001503,"INCLINATION":43.0048,"RA_OF_ASC_NODE":54.8394,"ARG_OF_PERICENTER":240.2274,"MEAN_ANOMALY":119.8429,"EPHEMERIS_TYPE":0,"CLASSIFICATION_TYPE":"U","NORAD_CAT_ID":66597,"ELEMENT_SET_NO":999,"REV_AT_EPOCH":1785,"BSTAR":0.0011455077,"MEAN_MOTION_DOT":0.00031399,"MEAN_MOTION_DDOT":0}]
